[{"OBJECT_NAME":"OBJECT J","OBJECT_ID":"2023-085J","EPOCH":"2026-03-09T22:47:59.920512","MEAN_MOTION":15.31507187,"ECCENTRICITY":0.00067028,"INCLINATION":97.4828,"RA_OF_ASC_NODE":180.1819,"ARG_OF_PERICENTER":41.7877,"MEAN_ANOMALY":318.3875,"EPHEMERIS_TYPE":0,"CLASSIFICATION_TYPE":"U","NORAD_CAT_ID":57012,"ELEMENT_SET_NO":999,"REV_AT_EPOCH":15156,"BSTAR":0.00064525349,"MEAN_MOTION_DOT":0.00019595,"MEAN_MOTION_DDOT":0},{"OBJECT_NAME":"STARLINK-30964","OBJECT_ID":"2023-180A","EPOCH":"2026-03-09T22:00:01.999584","MEAN_MOTION":15.27534414,"ECCENTRICITY":0.00013254,"INCLINATION":43.0022,"RA_OF_ASC_NODE":51.2339,"ARG_OF_PERICENTER":303.6347,"MEAN_ANOMALY":322.2227,"EPHEMERIS_TYPE":0,"CLASSIFICATION_TYPE":"U","NORAD_CAT_ID":58402,"ELEMENT_SET_NO":999,"REV_AT_EPOCH":577,"BSTAR":0.0018406986,"MEAN_MOTION_DOT":0.00050668,"MEAN_MOTION_DDOT":0}]
